NORAD_CAT_ID,OBJECT_NAME,OBJECT_TYPE,EPOCH,MEAN_MOTION,ECCENTRICITY,INCLINATION,RA_OF_ASC_NODE,ARG_OF_PERICENTER,MEAN_ANOMALY,BSTAR,MEAN_MOTION_DOT,MEAN_MOTION_DDOT,TLE_LINE0,TLE_LINE1,TLE_LINE2,SEMIMAJOR_AXIS,PERIOD,APOGEE,PERIGEE,DECAYED
55669.0,STARLINK-5459,PAYLOAD,2023-05-11 16:22:55,15.69921759,0.0003338,70.0002,276.8118,267.106,92.9754,1.4519e-05,1.533e-05,0.0,0 STARLINK-5459,1 55669U 23021AT  23131.68258785  .00001533  00000-0  14519-4 0  9994,2 55669  70.0002 276.8118 0003338 267.1060  92.9754 15.69921759 13862,6737.258,91.724,361.372,356.874,0.0
55669.0,STARLINK-5459,PAYLOAD,2023-05-12 03:05:11,15.69926967,0.0003102,70.0007,275.5565,271.8705,88.2135,3.4351e-05,3.92e-05,0.0,0 STARLINK-5459,1 55669U 23021AT  23132.12860531  .00003920  00000-0  34351-4 0  9990,2 55669  70.0007 275.5565 0003102 271.8705  88.2135 15.69926967 13931,6737.243,91.724,361.198,357.018,0.0
55669.0,STARLINK-5459,PAYLOAD,2023-05-12 18:22:42,15.69942952,0.0003245,70.0009,273.7653,273.5262,86.5562,8.9216e-05,0.00010536,0.0,0 STARLINK-5459,1 55669U 23021AT  23132.76576685  .00010536  00000-0  89216-4 0  9995,2 55669  70.0009 273.7653 0003245 273.5262  86.5562 15.69942952 13720,6737.197,91.723,361.248,356.876,0.0
55669.0,STARLINK-5459,PAYLOAD,2023-05-13 12:43:44,15.69909514,0.0003229,70.0011,271.6158,264.283,95.7997,-5.4438e-05,-6.749e-05,0.0,0 STARLINK-5459,1 55669U 23021AT  23133.53037345 -.00006749  00000-0 -54438-4 0  9997,2 55669  70.0011 271.6158 0003229 264.2830  95.7997 15.69909514 13844,6737.293,91.725,361.333,356.982,0.0
55669.0,STARLINK-5459,PAYLOAD,2023-05-13 18:50:44,15.69931837,0.0003509,70.0007,270.8991,266.0865,93.993,3.3173e-05,3.779e-05,0.0,0 STARLINK-5459,1 55669U 23021AT  23133.78523747  .00003779  00000-0  33173-4 0  9991,2 55669  70.0007 270.8991 0003509 266.0865  93.9930 15.69931837 14193,6737.229,91.724,361.458,356.73,0.0
55669.0,STARLINK-5459,PAYLOAD,2023-05-14 02:29:30,15.69927834,0.0003728,70.0005,270.0034,263.577,96.5001,1.9782e-05,2.167e-05,0.0,0 STARLINK-5459,1 55669U 23021AT  23134.10382139  .00002167  00000-0  19782-4 0  9996,2 55669  70.0005 270.0034 0003728 263.5770  96.5001 15.69927834 13932,6737.24,91.724,361.617,356.594,0.0
55669.0,STARLINK-5459,PAYLOAD,2023-05-14 11:40:00,15.69938971,0.0003546,70.0007,268.9295,266.2399,93.8392,4.4344e-05,5.126e-05,0.0,0 STARLINK-5459,1 55669U 23021AT  23134.48611786  .00005126  00000-0  44344-4 0  9990,2 55669  70.0007 268.9295 0003546 266.2399  93.8392 15.69938971 14303,6737.209,91.723,361.463,356.685,0.0
55669.0,STARLINK-5459,PAYLOAD,2023-05-14 17:47:00,15.69947204,0.0003654,70.0003,268.2133,263.4381,96.6399,8.3397e-05,9.837e-05,0.0,0 STARLINK-5459,1 55669U 23021AT  23134.74097890  .00009837  00000-0  83397-4 0  9997,2 55669  70.0003 268.2133 0003654 263.4381  96.6399 15.69947204 14030,6737.185,91.723,361.512,356.588,0.0
55669.0,STARLINK-5459,PAYLOAD,2023-05-15 12:08:00,15.69924255,0.0003427,70.0008,266.0624,262.6915,97.3891,-0.0002294,-0.00027706,0.0,0 STARLINK-5459,1 55669U 23021AT  23135.50555925 -.00027706  00000-0 -22940-3 0  9993,2 55669  70.0008 266.0624 0003427 262.6915  97.3891 15.69924255 14461,6737.251,91.724,361.425,356.807,0.0
55669.0,STARLINK-5459,PAYLOAD,2023-05-15 15:11:30,15.69903073,0.0004134,70.0004,265.7047,279.1709,80.9019,-0.00026815,-0.0003231,0.0,0 STARLINK-5459,1 55669U 23021AT  23135.63299743 -.00032310  00000-0 -26815-3 0  9992,2 55669  70.0004 265.7047 0004134 279.1709  80.9019 15.69903073 14175,6737.311,91.725,361.962,356.391,0.0
55669.0,STARLINK-5459,PAYLOAD,2023-05-15 16:43:16,15.69903328,0.0003556,70.0012,265.5244,279.5377,80.5416,-0.00024298,-0.00029303,0.0,0 STARLINK-5459,1 55669U 23021AT  23135.69671520 -.00029303  00000-0 -24298-3 0  9996,2 55669  70.0012 265.5244 0003556 279.5377  80.5416 15.69903328 14498,6737.311,91.725,361.571,356.78,0.0
55669.0,STARLINK-5459,PAYLOAD,2023-05-16 11:04:19,15.6989286,0.0003561,70.001,263.3746,283.773,76.307,0.00012278,0.00014558,0.0,0 STARLINK-5459,1 55669U 23021AT  23136.46133957  .00014558  00000-0  12278-3 0  9998,2 55669  70.0010 263.3746 0003561 283.7730  76.3070 15.69892860 14302,6737.341,91.726,361.605,356.806,0.0
55669.0,STARLINK-5459,PAYLOAD,2023-05-16 18:43:05,15.69914018,0.0003467,70.0009,262.4787,283.5382,76.5427,0.00017059,0.00020341,0.0,0 STARLINK-5459,1 55669U 23021AT  23136.77992525  .00020341  00000-0  17059-3 0  9995,2 55669  70.0009 262.4787 0003467 283.5382  76.5427 15.69914018 14354,6737.28,91.725,361.481,356.809,0.0
55669.0,STARLINK-5459,PAYLOAD,2023-05-17 17:39:22,15.69936692,0.0003194,70.0016,259.7909,273.8198,86.2632,0.0001044,0.00012365,0.0,0 STARLINK-5459,1 55669U 23021AT  23137.73567391  .00012365  00000-0  10440-3 0  9995,2 55669  70.0016 259.7909 0003194 273.8198  86.2632 15.69936692 14506,6737.215,91.723,361.232,356.928,0.0
55669.0,STARLINK-5459,PAYLOAD,2023-05-18 01:18:07,15.69932918,0.0002923,70.002,258.8956,281.9558,78.131,6.9862e-05,8.198e-05,0.0,0 STARLINK-5459,1 55669U 23021AT  23138.05425848  .00008198  00000-0  69862-4 0  9993,2 55669  70.0020 258.8956 0002923 281.9558  78.1310 15.69932918 14557,6737.226,91.724,361.06,357.122,0.0
55669.0,STARLINK-5459,PAYLOAD,2023-05-18 10:28:38,15.69927121,0.0003281,70.0016,257.8216,276.4371,83.6451,2.1782e-05,2.407e-05,0.0,0 STARLINK-5459,1 55669U 23021AT  23138.43655830  .00002407  00000-0  21782-4 0  9997,2 55669  70.0016 257.8216 0003281 276.4371  83.6451 15.69927121 14614,6737.243,91.724,361.318,356.897,0.0
55669.0,STARLINK-5459,PAYLOAD,2023-05-19 09:24:55,15.69923134,0.0003357,70.0017,255.135,275.6582,84.4231,4.289e-06,3.03e-06,0.0,0 STARLINK-5459,1 55669U 23021AT  23139.39231117  .00000303  00000-0  42890-5 0  9998,2 55669  70.0017 255.1350 0003357 275.6582  84.4231 15.69923134 14765,6737.254,91.724,361.381,356.857,0.0
55669.0,STARLINK-5459,PAYLOAD,2023-05-19 10:56:41,15.69917368,0.0003233,70.0009,254.9556,274.3969,85.6857,2.6617e-05,2.988e-05,0.0,0 STARLINK-5459,1 55669U 23021AT  23139.45603176  .00002988  00000-0  26617-4 0  9992,2 55669  70.0009 254.9556 0003233 274.3969  85.6857 15.69917368 15084,6737.27,91.725,361.314,356.957,0.0
55669.0,STARLINK-5459,PAYLOAD,2023-05-20 00:42:25,15.69942647,0.0003484,70.0012,253.3436,278.3946,81.6855,-4.0271e-05,-5.056e-05,0.0,0 STARLINK-5459,1 55669U 23021AT  23140.02946734 -.00005056  00000-0 -40271-4 0  9990,2 55669  70.0012 253.3436 0003484 278.3946  81.6855 15.69942647 14862,6737.198,91.723,361.41,356.716,0.0
55669.0,STARLINK-5459,PAYLOAD,2023-05-20 09:52:57,15.69929818,0.0003506,70.0012,252.269,274.9591,85.1205,2.4013e-05,2.676e-05,0.0,0 STARLINK-5459,1 55669U 23021AT  23140.41177505  .00002676  00000-0  24013-4 0  9994,2 55669  70.0012 252.2690 0003506 274.9591  85.1205 15.69929818 14925,6737.235,91.724,361.462,356.738,0.0
55669.0,STARLINK-5459,PAYLOAD,2023-05-20 17:31:42,15.69939313,0.0003172,70.0005,251.3723,275.6104,84.473,4.2596e-05,4.915e-05,0.0,0 STARLINK-5459,1 55669U 23021AT  23140.73035349  .00004915  00000-0  42596-4 0  9992,2 55669  70.0005 251.3723 0003172 275.6104  84.4730 15.69939313 15287,6737.208,91.723,361.21,356.936,0.0
55669.0,STARLINK-5459,PAYLOAD,2023-05-21 07:17:29,15.69910244,0.0002794,70.0044,249.7652,253.2459,106.843,-2.417e-05,-3.115e-05,0.0,0 STARLINK-5459,1 55669U 23021AT  23141.30381754 -.00003115  00000-0 -24170-4 0  9991,2 55669  70.0044 249.7652 0002794 253.2459 106.8430 15.69910244 15060,6737.291,91.725,361.038,357.273,0.0
55669.0,STARLINK-5459,PAYLOAD,2023-05-21 10:21:00,15.6990558,0.0003233,70.004,249.4076,251.2015,108.883,-3.514e-05,-4.432e-05,0.0,0 STARLINK-5459,1 55669U 23021AT  23141.43125303 -.00004432  00000-0 -35140-4 0  9993,2 55669  70.0040 249.4076 0003233 251.2015 108.8830 15.69905580 15397,6737.304,91.725,361.347,356.991,0.0
55669.0,STARLINK-5459,PAYLOAD,2023-05-21 16:28:00,15.69914289,0.0003108,70.003,248.6908,241.0469,119.0415,-3.1754e-05,-4.027e-05,0.0,0 STARLINK-5459,1 55669U 23021AT  23141.68611726 -.00004027  00000-0 -31754-4 0  9996,2 55669  70.0030 248.6908 0003108 241.0469 119.0415 15.69914289 15436,6737.279,91.725,361.238,357.05,0.0
55669.0,STARLINK-5459,PAYLOAD,2023-05-22 00:06:45,15.69934003,0.00031,70.0009,247.7896,265.0122,95.072,3.4636e-05,3.956e-05,0.0,0 STARLINK-5459,1 55669U 23021AT  23142.00469498  .00003956  00000-0  34636-4 0  9990,2 55669  70.0009 247.7896 0003100 265.0122  95.0720 15.69934003 15171,6737.223,91.724,361.176,356.999,0.0
55669.0,STARLINK-5459,PAYLOAD,2023-05-22 10:49:01,15.69936199,0.0003394,70.0011,246.5358,261.143,98.9382,4.0628e-05,4.678e-05,0.0,0 STARLINK-5459,1 55669U 23021AT  23142.45070985  .00004678  00000-0  40628-4 0  9998,2 55669  70.0011 246.5358 0003394 261.1430  98.9382 15.69936199 15554,6737.217,91.723,361.368,356.795,0.0
55669.0,STARLINK-5459,PAYLOAD,2023-05-22 15:24:16,15.69933429,0.0003385,70.0009,245.9981,259.0918,100.9897,3.6032e-05,4.124e-05,0.0,0 STARLINK-5459,1 55669U 23021AT  23142.64185946  .00004124  00000-0  36032-4 0  9993,2 55669  70.0009 245.9981 0003385 259.0918 100.9897 15.69933429 15584,6737.224,91.724,361.37,356.809,0.0
55669.0,STARLINK-5459,PAYLOAD,2023-05-23 09:45:18,15.69920901,0.0002575,70.0028,243.8503,240.4174,119.6765,3.4112e-05,3.89e-05,0.0,0 STARLINK-5459,1 55669U 23021AT  23143.40646889  .00003890  00000-0  34112-4 0  9992,2 55669  70.0028 243.8503 0002575 240.4174 119.6765 15.69920901 15391,6737.26,91.724,360.86,357.39,0.0
55669.0,STARLINK-5459,PAYLOAD,2023-05-23 15:52:19,15.69922164,0.0002792,70.002,243.1352,249.3847,110.7049,2.7673e-05,3.116e-05,0.0,0 STARLINK-5459,1 55669U 23021AT  23143.66133561  .00003116  00000-0  27673-4 0  9993,2 55669  70.0020 243.1352 0002792 249.3847 110.7049 15.69922164 15743,6737.257,91.724,361.003,357.241,0.0
55669.0,STARLINK-5459,PAYLOAD,2023-05-23 23:31:05,15.69919711,0.0002156,70.0021,242.2352,278.3516,81.7435,-1.6289e-05,-2.169e-05,0.0,0 STARLINK-5459,1 55669U 23021AT  23143.97992386 -.00002169  00000-0 -16289-4 0  9995,2 55669  70.0021 242.2352 0002156 278.3516  81.7435 15.69919711 15484,6737.264,91.724,360.581,357.676,0.0
